_id,name,category,phone,website,address,postal_code,municipality,city,description,geometry
1,299 Queen Street West,Landmark,416-384-6104,https://www.much.com/,299 Queen St W,M5V 2Z5,former Toronto,Toronto,A monumental building that was once dedicated to engaging the youth through popular music and popular television series.,"{""type"": ""MultiPoint"", ""coordinates"": [[-79.39044, 43.64942]]}"
2,Aga Khan Museum,Museum,416-646-4677,https://www.agakhanmuseum.org/,77 Wynford Dr,M3C 1K1,North York,Toronto,"Dedicated to sharing the artistic, intellectual, and scientific contributions that Islamic civilizations and cultures have made to world heritage.","{""type"": ""MultiPoint"", ""coordinates"": [[-79.33223, 43.72526]]}"
3,Al Green Theatre (at the Miles Nadal Jewish Community Centre),Performing Arts,416-924-6211,http://www.algreentheatre.ca/,750 Spadina Ave,M5S 2J2,former Toronto,Toronto,"The Al Green Theatre is used  for social and corporate event, theatre, film, concerts, dance; and lectures.","{""type"": ""MultiPoint"", ""coordinates"": [[-79.40395, 43.66641]]}"
4,Alexander Muir Memorial Gardens,Nature/ Park,416-396-7378,https://www.toronto.ca/data/parks/prd/facilities/complex/193/index.html,2901 Yonge St,M4N 3N8,former Toronto,Toronto,Named after the famous composer Alexander Muir. The gardens act as a path into the tranquil ravine system that includes walking trails. The gardens are open year round.,"{""type"": ""MultiPoint"", ""coordinates"": [[-79.4012, 43.72157]]}"
5,Allan Gardens,Nature/ Park,416-392-7288,https://www.toronto.ca/explore-enjoy/parks-recreation/places-spaces/beaches-gardens-attractions/gardens-and-horticulture/conservatories/allan-gardens-conservatory/,19 Horticultural Ave,M5A 2P2,former Toronto,Toronto,Allan Gardens is a park and indoor botanical garden built in 1910. The building houses six greenhouses featuring plants and flowers from across the globe. Open year round and free to the public.,"{""type"": ""MultiPoint"", ""coordinates"": [[-79.37458, 43.66153]]}"
6,Alumnae Theatre,Performing Arts,416-364-4170,https://www.alumnaetheatre.com/,70 Berkeley St,M5A 2W6,former Toronto,Toronto,The theatre company is housed inside an old firehall and is the oldest theatre society in Toronto. Each year the company offers three productions.,"{""type"": ""MultiPoint"", ""coordinates"": [[-79.36498, 43.65273]]}"
7,Arcadia Earth,Attraction,None,https://www.arcadiaearth.ca/,486 Front St,M5V 0V2,former Toronto,Toronto,Arcadia Earth is a multi-sensory journey that combines creative art installations and exciting technology that showcases the beauty of our planet.,"{""type"": ""MultiPoint"", ""coordinates"": [[-79.397, 43.64297]]}"
8,Art Gallery of Ontario,Gallery,416-979-6648,https://ago.ca/,317 Dundas St W,M5T 1G4,former Toronto,Toronto,"The Art Gallery of Ontario (AGO) is one of the largest art galleries in North America, and holds more than 80,000 works in its collection. In 2008 the building was redesigned by famous architect and native Torontonian, Frank Gehry.","{""type"": ""MultiPoint"", ""coordinates"": [[-79.39253, 43.6536]]}"
9,Art Museum at the University of Toronto,Gallery,416-978-1838,https://artmuseum.utoronto.ca/,15 King's College Crcl,M5S 3H7,former Toronto,Toronto,Originally opened in 1996 The Arts centre puts a special focus on study collections.,"{""type"": ""MultiPoint"", ""coordinates"": [[-79.39579, 43.66316]]}"
10,Artscape Wychwood Barns,Landmark,647-696-6962,https://artscapewychwoodbarns.ca/,601 Christie St,M6G 4C7,former Toronto,Toronto,"A heritage building converted into a community centre that hosts many events, festivals, farmers market and a children's theatre.","{""type"": ""MultiPoint"", ""coordinates"": [[-79.42384, 43.67989]]}"
11,Ashbridges Bay Park,Nature/ Park,416-392-2489,https://www.toronto.ca/data/parks/prd/facilities/complex/1/index.html,1561 Lake Shore Blvd E,M4L 3W6,former Toronto,Toronto,"Ashbridges Bay waterfront park features large beaches, fishing areas, a marina, and the Woodbine Beach boardwalk.","{""type"": ""MultiPoint"", ""coordinates"": [[-79.31033, 43.65996]]}"
12,Balmy Beach Park,Nature/ Park,416-392-2489,https://www.toronto.ca/explore-enjoy/parks-recreation/places-spaces/parks-and-recreation-facilities/location/?id=427&title=Balmy-Beach-Park,1 Beech Ave,M4E 1A7,former Toronto,Toronto,"Created in 1903, the historic park features a lawn bowling club, a playground and outdoor fitness equipment.","{""type"": ""MultiPoint"", ""coordinates"": [[-79.28419, 43.67057]]}"
13,BAPS Shri Swaminarayan Mandir,Landmark,416-798-2277,http://www.baps.org/Global-Network/North-America/Toronto.aspx,61 Claireville Dr,M9W 5Z7,Etobicoke,Toronto,"This unique-to-Canada architectural monument is made with 24,000 pieces of marble and stone. Discover the more than 10,000-year-old heritage of India.","{""type"": ""MultiPoint"", ""coordinates"": [[-79.62676, 43.73865]]}"
14,Bata Shoe Museum,Museum,416-979-7799,https://batashoemuseum.ca/,327 Bloor St W,M5S 1W7,former Toronto,Toronto,"Home to hundreds of shoes (from a collection numbering over 13,000). The museum celebrates the style and function of footwear in impressive galleries from ancient Egypt to modern fashion.","{""type"": ""MultiPoint"", ""coordinates"": [[-79.40019, 43.66729]]}"
15,Beanfield Centre,Convention & Trade Centres,416-263-3000,https://www.beanfieldcentre.com/,105 Princes' Blvd,M6K 3C3,former Toronto,Toronto,The Beanfield Centre (formerly Allstream Centre) is an environmentally friendly conference venue.,"{""type"": ""MultiPoint"", ""coordinates"": [[-79.41061, 43.63413]]}"
16,Betty Oliphant Theatre (at Canada's National Ballet School),Performing Arts,416-964-3780,https://www.nbs-enb.ca/venue-rentals/betty-oliphant-theatre,404 Jarvis St,M4Y 2G6,former Toronto,Toronto,"Designed by Jack Diamond, the Betty Oliphant Theatre is used by the Canada National Ballet School as a training and performance venue.","{""type"": ""MultiPoint"", ""coordinates"": [[-79.37802, 43.6642]]}"
17,Billy Bishop Toronto City Airport,Transportation,416-203-6942,https://www.billybishopairport.com/,2 Eireann Quay,M5V 1A1,former Toronto,Toronto,"Located minutes from the downtown core, Billy Bishop Airport serves nearby Canadian and American cities.","{""type"": ""MultiPoint"", ""coordinates"": [[-79.39451, 43.62891]]}"
18,Bluffer's Park and Beach (Scarborough Bluffs),Nature/ Park,416-392-2489,https://www.toronto.ca/data/parks/prd/facilities/complex/2/index.html,1 Brimley Rd S,M1M 3W3,Scarborough,Toronto,"Providing a beautiful backdrop for locals and visitors alike, the Bluffs are one of Toronto's great natural wonders.","{""type"": ""MultiPoint"", ""coordinates"": [[-79.23476772, 43.70820476]]}"
19,BMO Field,Sports / Entertainment Venue,416-815-5982,https://www.bmofield.com/,170 Princes' Blvd,M6K 3C3,former Toronto,Toronto,"BMO Field is home to the Toronto FC (Major League Soccer), Canada's national soccer team, and the home of the Toronto Argonauts (Canadian Football League).","{""type"": ""MultiPoint"", ""coordinates"": [[-79.41864, 43.63315]]}"
20,Bubble Planet,Attraction,None,https://bubble-planet.com/toronto/,30 Hanover Rd,M3K 0E2,North York,Toronto,"Bubble Planet is an immersive experience featuring VR technology, illusions, ball pits and more.","{""type"": ""MultiPoint"", ""coordinates"": [[-79.46831, 43.73808]]}"
21,Buddies in Bad Times Theatre,Performing Arts,416-975-8555,https://buddiesinbadtimes.com/,12 Alexander St,M4Y 1B4,former Toronto,Toronto,"Buddies in Bad Times theatre is the biggest, and the longest-running queer theatre in the world.","{""type"": ""MultiPoint"", ""coordinates"": [[-79.38307, 43.66331]]}"
22,Budweiser Stage,Sports / Entertainment Venue,416-260-5600,https://www.livenation.com/venue/KovZpZAEkkIA/budweiser-stage-events,909 Lake Shore Blvd W,M6K 3L3,former Toronto,Toronto,"Located within the Ontario Place grounds, the Budweiser Stage offers concert goers an excellent outdoors venue.","{""type"": ""MultiPoint"", ""coordinates"": [[-79.41512, 43.62921]]}"
23,CAA Ed Mirvish Theatre,Performing Arts,1-800-461-3333,https://www.mirvish.com/theatres/ed-mirvish-theatre,244 Victoria St,M5B 1V8,former Toronto,Toronto,"A part of the Toronto theatre scene since 1920, the Ed Mirvish Theatre is a picturesque theatre to view special presentations ranging from concerts, comedy, plays, and many more.","{""type"": ""MultiPoint"", ""coordinates"": [[-79.37942, 43.65524]]}"
24,CAA Theatre (formerly Panasonic Theatre),Performing Arts,1-800-461-3333,https://www.mirvish.com/theatres/caa-theatre,651 Yonge St,M4Y 1Z9,former Toronto,Toronto,"Owned by Mirvish Productions, the CAA Theatre is the home of many famous theatrical productions.","{""type"": ""MultiPoint"", ""coordinates"": [[-79.38572, 43.66803]]}"
25,Campbell House,Museum,416-597-0227,http://www.campbellhousemuseum.ca/,160 Queen St W,M5H 3H3,former Toronto,Toronto,The Campbell house dates back to 1822 and was once home to Judge William Campbell.  It is the last example of Palladian architecture in  Toronto.,"{""type"": ""MultiPoint"", ""coordinates"": [[-79.38732, 43.65105]]}"
26,Canada's Walk of Fame,Landmark,416-367-9255,https://www.canadaswalkoffame.com/,215 King St W,M5V 1H8,former Toronto,Toronto,Canada's Walk of Fame celebrates Canadians who have excelled in their respective fields for at least 10 years. The stars are displayed throughout the Entertainment District along King Street West and Simcoe Street.,"{""type"": ""MultiPoint"", ""coordinates"": [[-79.38676, 43.64715]]}"
27,Canadian Museum of Cultural Heritage of Indo-Canadian,Museum,416-798-2277,https://www.baps.org/cultureandheritage/ExperienceIndia/Exhibitions/CanadianMuseumofCulturalHeritageofIndo-Canadians.aspx,61 Claireville Dr,M9W 5Z7,Etobicoke,Toronto,The Canadian Museum of Cultural Heritage of Indo-Canadians is a museum committed to the understanding of India's rich cultural heritage. See BAPS Shri Swaminarayan Mandir.,"{""type"": ""MultiPoint"", ""coordinates"": [[-79.62607, 43.73869]]}"
28,Canadian Sculpture Centre,Gallery,647-435-5858,https://www.sculptorssocietyofcanada.org/,95 Moatfield Dr,M3B 3L6,former Toronto,Toronto,The Canadian Scultpture Centre is headquarters to the Sculptors Society of Canada. The society showcases and exibits contemporary Canadian scultpures.,"{""type"": ""MultiPoint"", ""coordinates"": [[-79.35061, 43.75922]]}"
29,Canadian Stage (Berkeley Street Theatre),Performing Arts,416-367-8243,https://www.canadianstage.com/Online/default.asp?BOparam::WScontent::loadArticle::permalink=berkeley&BOparam::WScontent::loadArticle::context_id=,26 Berkeley St,M5A 2W3,former Toronto,Toronto,"Home to the Canadian Stage Company, the Berkeley Street Theatre presents an array of Canadian and international performances.","{""type"": ""MultiPoint"", ""coordinates"": [[-79.36395, 43.65066]]}"
30,Casa Loma,Attraction,416-923-1171,https://casaloma.ca/,1 Austin Ter,M5R 1X8,former Toronto,Toronto,"Canadas foremost castle is complete with decorated suites, secret passages, an 800-foot tunnel, towers, stables, and beautiful 5-acre estate gardens.","{""type"": ""MultiPoint"", ""coordinates"": [[-79.40944, 43.67803]]}"
31,Cedar Ridge Creative Centre,Gallery,416-396-4026,https://www.toronto.ca/explore-enjoy/history-art-culture/cultural-centres-galleries/cedar-ridge-creative-centre/,225 Confederation Dr,M1G 1B2,Scarborough,Toronto,"Situated in a restored mansion, the centre features the Cedar Ridge gallery and rich gardens. The gallery highlights work from artists throughout the Greater Toronto area.","{""type"": ""MultiPoint"", ""coordinates"": [[-79.20709, 43.75744]]}"
32,Centennial Park,Nature/ Park,416-394-8750,https://www.toronto.ca/data/parks/prd/facilities/complex/798/index.html,256 Centennial Park Rd,M9C 5N3,Etobicoke,Toronto,"Centennial Park is situated in Etobicoke and was opened in 1967 to celebrate Canada's 100th birthday. The park features sports fields, a conservatory, a ski hill, an Olympic size swimming pool, picnic areas and a Frisbee golf course.","{""type"": ""MultiPoint"", ""coordinates"": [[-79.59015, 43.65484]]}"
33,Centennial Park Conservatory,Nature/ Park,416-394-8543,https://www.toronto.ca/explore-enjoy/parks-gardens-beaches/gardens-and-horticulture/conservatories/centennial-park-conservatory/,151 Elmcrest Rd,M9C 3S1,Etobicoke,Toronto,"The Centennial Park conservatory is located within Centennial Park. At a size of 12,000 square feet it features an arid house, a show house and a tropical house. The conservatory is open year round and is free to the public.","{""type"": ""MultiPoint"", ""coordinates"": [[-79.58837, 43.64938]]}"
34,Centre Island Beach,Nature/ Park,416-392-2489,http://app.toronto.ca/tpha/beach/5.html,1 Avenue Of The Islands,,former Toronto,Toronto,Centre Island Beach also known as Manitou Beach has been used by locals and tourists alike for more than a century. The beach is located on the south end of Centre Island. It is surrounded by park space and amenities such as bike and boat rentals.,"{""type"": ""MultiPoint"", ""coordinates"": [[-79.37428, 43.61568]]}"
35,Centreville Amusement Park,Attraction,416-203-0405 (Summer) 416-234-2345 (Winter),http://www.centreisland.ca/,21 Avenue Of The Islands,,former Toronto,Toronto,"Centreville is a 14-acre, turn-of-the-century, Ontario village theme park for children located on Centre Island, featuring over 30 rides.","{""type"": ""MultiPoint"", ""coordinates"": [[-79.37354, 43.62029]]}"
36,CF Fairview Mall,Landmark,416-491-0151,https://www.cfshops.com/fairview-mall.html,1800 Sheppard Ave E,M2J 5A7,North York,Toronto,An upscale shopping centre in the north eastern part of Toronto.,"{""type"": ""MultiPoint"", ""coordinates"": [[-79.34471, 43.77793]]}"
37,CF Sherway Gardens,Landmark,416-621-1070,https://www.cfshops.com/sherway-gardens.html,25 The West Mall,M9C 1B8,Etobicoke,Toronto,An upscale shopping centre in Toronto's West end.,"{""type"": ""MultiPoint"", ""coordinates"": [[-79.55711, 43.61187]]}"
38,CF Toronto Eaton Centre,Landmark,416-598-8560,https://www.cfshops.com/toronto-eaton-centre.html,220 Yonge St,M5B 2H1,former Toronto,Toronto,The Toronto Eaton Centre is downtown Toronto's only shopping mall. It features over 200 stores and restaurants as well as the sculpture called Flightstop designed by Michael Snow.,"{""type"": ""MultiPoint"", ""coordinates"": [[-79.38072, 43.65438]]}"
39,Cherry Beach/ Clarke Beach Park,Nature/ Park,416-396-7378,https://www.toronto.ca/data/parks/prd/facilities/complex/209/index.html,1 Cherry St,M5A 0B7,former Toronto,Toronto,"Cherry Beach is located within the port lands and features a dog's off leash area, the Martin Goodman Trail and a picnic site.","{""type"": ""MultiPoint"", ""coordinates"": [[-79.34409, 43.63685]]}"
40,Chinese Cultural Centre of Greater Toronto,Attraction,416-292-9293,https://www.cccgt.org/,5183 Sheppard Ave E,M1B 5Z5,Scarborough,Toronto,"The building houses the P.C. Ho theatre, studios, conference rooms, a resource centre, a reception hall and an art gallery.","{""type"": ""MultiPoint"", ""coordinates"": [[-79.234, 43.79446]]}"
41,CN Tower,Attraction,416-868-6937,http://www.cntower.ca/,290 Bremner Blvd,M5V 3L9,former Toronto,Toronto,"The CN Tower is an engineering marvel and one of the city's most visited sites. It features the world's highest wine cellar, a fine dining revolving restaurant (360), a glass floor. For the true adventure seeker, the Edge walk.","{""type"": ""MultiPoint"", ""coordinates"": [[-79.38707, 43.64256]]}"
42,Coca-Cola Coliseum (formerly Ricoh Coliseum),Sports / Entertainment Venue,416-815-5982,https://www.coca-colacoliseum.com/,19 Nunavut Rd,M6K 3C3,former Toronto,Toronto,"Located at Exhibition Place, the Coca-Cola Coliseum is home to the Toronto Marlies (American Hockey League) and concerts.","{""type"": ""MultiPoint"", ""coordinates"": [[-79.41528, 43.63489]]}"
43,Colborne Lodge,Museum,416-392-6916,https://www.toronto.ca/explore-enjoy/history-art-culture/museums/colborne-lodge/,11 Colborne Lodge Dr,M6S 5A3,former Toronto,Toronto,This quaint cottage located within High Park was home to John and Jemma Howard. In 1873 the couple deeded the part to lodge to the City of Toronto. The house is a great example of a regency style building.,"{""type"": ""MultiPoint"", ""coordinates"": [[-79.45998, 43.6404]]}"
44,Dancemakers Centre for Creation,Performing Arts,416-367-1800,http://dancemakers.org/,410 Jarvis St,M4Y 2G6,former Toronto,Toronto,"One of Toronto's professional contemporary dance companies, Dancemakers and the Centre for Creation is focused on the delivery of refined and passionate dance to its admirers.","{""type"": ""MultiPoint"", ""coordinates"": [[-79.37792, 43.66451]]}"
45,Design Exchange,Museum,416-933-2919,https://designexchangetoronto.com/,234 Bay St,M5K 1B2,former Toronto,Toronto,Canada's only museum dedicated to the preservation of design which includes the design heritage from an array of mediums.,"{""type"": ""MultiPoint"", ""coordinates"": [[-79.38032, 43.64769]]}"
46,Downsview Park,Nature/ Park,416-634-2559,https://en.downsviewpark.ca/home,70 Canuck Ave,M3K 2C5,North York,Toronto,"The vast green space allows for an array of small-to-large scale events such as culture, dining, leisure, sports, and recreation.","{""type"": ""MultiPoint"", ""coordinates"": [[-79.48417, 43.74388]]}"
47,Elgin and Winter Garden Theatre Centre,Performing Arts,416-314-3718,https://www.heritagetrust.on.ca/ewg/ewg-home,189 Yonge St,M5B 1M4,former Toronto,Toronto,The Elgin and Winter Garden Theatre features two completely separate theatres and is the last running double-decker theatre in the world .,"{""type"": ""MultiPoint"", ""coordinates"": [[-79.37938, 43.65304]]}"
48,Enercare Centre,Convention & Trade Centres,416-263-3000,https://www.enercarecentre.com/,100 Princes' Blvd,M6K 3C3,former Toronto,Toronto,"The largest convention centre in Canada, over 180 trade and consumer shows are hosted annually.","{""type"": ""MultiPoint"", ""coordinates"": [[-79.41238, 43.63504]]}"
49,Evergreen Brick Works,Attraction,416-596-7670,http://www.evergreen.ca/get-involved/evergreen-brick-works/,550 Bayview Ave,M4W 3X8,East York,Toronto,"A former brickyard, the Evergreen Brick Works is an urban model for ecosystem planning. Filled with activities for the whole family and a farmers market.","{""type"": ""MultiPoint"", ""coordinates"": [[-79.36473, 43.68432]]}"
50,Exhibition Place,Convention & Trade Centres,416-263-3000,https://www.explace.on.ca/,100 Princes' Blvd,M6K 3C3,former Toronto,Toronto,"Attracting over 5 million visitors a year, this massive complex features sporting and exhibition facilities, a nightclub and attractions.","{""type"": ""MultiPoint"", ""coordinates"": [[-79.41238, 43.63509]]}"
51,Factory Theatre,Performing Arts,416-504-9971,https://www.factorytheatre.ca,125 Bathurst St,M5V 2R2,former Toronto,Toronto,"The Factory Theatre operates two theatres in a  Victorian mansion, where they have produced more than 150 Canadian plays, and various workshops.","{""type"": ""MultiPoint"", ""coordinates"": [[-79.40282, 43.64547]]}"
52,Famous People Players,Performing Arts,416-532-1137,https://famouspeopleplayers.com/,343 Evans Ave,M8Z 1K2,Etobicoke,Toronto,"Located in Toronto's West End, Famous PEOPLE Players allows visitors to immerse themselves in a unique dining experience while enjoying theatre in the dark.","{""type"": ""MultiPoint"", ""coordinates"": [[-79.52066, 43.61501]]}"
53,Fort York National Historic Site,Museum,416-392-6907,https://www.toronto.ca/explore-enjoy/history-art-culture/museums/fort-york-national-historic-site/,250 Fort York Blvd,M5V 3K9,former Toronto,Toronto,"Birthplace of Toronto in 1793 and scene of the Battle of York in 1813, Fort York has Canadas largest collection of original War of 1812 buildings. Open year round for tours, exhibits, and demonstrations.","{""type"": ""MultiPoint"", ""coordinates"": [[-79.40417, 43.63924]]}"
54,Four Seasons Centre for the Performing Arts,Performing Arts,416-363-8231,https://www.coc.ca/venue-information/fourseasonscentre,145 Queen St W,M5H 4G1,former Toronto,Toronto,The Four Seasons Centre for the Performing Arts is home to the Canadian Opera Company and the National Ballet of Canada.,"{""type"": ""MultiPoint"", ""coordinates"": [[-79.38568, 43.65052]]}"
55,Franklin Children's Garden,Garden / Conservatory,416-392-2489,https://www.toronto.ca/data/parks/prd/facilities/complex/1806/index.html,30 Centre Island Pk,M5J 2E9,former Toronto,Toronto,"The garden, inspired by Franklin the Turtle, is an area to discover nature, play, while learning something new.","{""type"": ""MultiPoint"", ""coordinates"": [[-79.37627, 43.61615]]}"
56,Gardiner Museum,Museum,416-586-8080,https://www.gardinermuseum.on.ca/,111 Queen's Park,M5S 2C7,former Toronto,Toronto,"A museum dedicated to one of the oldest forms of art. The Gardiner Museum of Ceramic Art is home to over 3,000 historical and contemporary ceramic pieces.","{""type"": ""MultiPoint"", ""coordinates"": [[-79.39315, 43.66808]]}"
57,George Ignatieff Theatre,Performing Arts,416-978-4166,https://www.trinity.utoronto.ca/discover/catering-events/george-ignatieff-theatre/,15 Devonshire Pl,M5S 2C8,former Toronto,Toronto,"In the Trinity College community, the George Ignatieff Theatre acts as a creative hub ranging from events like theatre, conferences, and much more.","{""type"": ""MultiPoint"", ""coordinates"": [[-79.39715, 43.66557]]}"
58,Gibraltar Point Beach,Nature/ Park,416-392-2489,http://app.toronto.ca/tpha/beach/4.html,443 Lakeshore Ave,M5J 2W2,former Toronto,Toronto,"Surrounded by eastern cottonwood trees, the Gibraltar Point Beach is located on the southwest shore of Toronto Island Park. The Gibraltar Point Centre for the Arts is walking distance from the beach.","{""type"": ""MultiPoint"", ""coordinates"": [[-79.38407, 43.61291]]}"
59,Gibson House Museum,Museum,416-395-7432,https://www.toronto.ca/explore-enjoy/history-art-culture/museums/gibson-house-museum/,5172 Yonge St,M2N 5P6,North York,Toronto,"Operated  by the City of Toronto, the Gibson House is a museum where visitors experience an exquisite farmhouse and learn more about the rural development of the area.","{""type"": ""MultiPoint"", ""coordinates"": [[-79.4149, 43.76962]]}"
60,Glenn Gould Studio,Performing Arts,833-205-5574,https://www.cbc.ca/glenngouldstudio/,250 Front St W,M5V 3G5,former Toronto,Toronto,"Located on the main floor of the Canadian Broadcasting Centre,  the Glenn Gould Studio is a much-celebrated venue for its state of the art recording facilities and acoustics.","{""type"": ""MultiPoint"", ""coordinates"": [[-79.38778, 43.64438]]}"
61,Gooderham Flatiron Building,Landmark,416-392-1975,https://www.historicplaces.ca/en/rep-reg/place-lieu.aspx?id=8311,49 Wellington St E,M5E 1C9,former Toronto,Toronto,Gooderham Building is a historic office building known for its unique location and triangular architecture.,"{""type"": ""MultiPoint"", ""coordinates"": [[-79.37417, 43.64844]]}"
62,Graffiti Alley,Landmark,416-392-2489,https://artwalk.tdwbia.ca/businesses/graffiti-alley-toronto,513 Queen St W,M5V 2B4,former Toronto,Toronto,The graffiti hub showcases several blocks of colourful murals and art.,"{""type"": ""MultiPoint"", ""coordinates"": [[-79.39847, 43.64792]]}"
63,Guild Park and Gardens (formely known as Guildwood Park),Nature/ Park,416-396-7378,https://www.toronto.ca/data/parks/prd/facilities/complex/406/index.html,201 Guildwood Pkwy,M1E 1P5,Scarborough,Toronto,"A sculptural alluring park and garden, the Guild Park and Gardens is rich in local history and a must-see for locals and visitors alike.","{""type"": ""MultiPoint"", ""coordinates"": [[-79.19249, 43.74809]]}"
64,Hanlan's Point Beach,Nature/ Park,416-392-8196,https://www.toronto.ca/data/parks/prd/facilities/complex/2541/index.html,695 Lakeshore Ave,M5J 2W2,former Toronto,Toronto,"Situated on the west shore of Toronto Island Park, this beach is Toronto's only clothing optional beach.","{""type"": ""MultiPoint"", ""coordinates"": [[-79.39409, 43.61986]]}"
65,Harbour Square Park,Nature/ Park,416-392-2489,https://www.toronto.ca/explore-enjoy/parks-recreation/places-spaces/parks-and-recreation-facilities/location/?id=74&title=Harbour-Square-Park,25 Queens Quay W,M5J 2T5,former Toronto,Toronto,"Located next to the Toronto Ferry Docks, Harbour Square Park offers downtown folks a spot to sit and watch the ferries travel back and forth to the island.","{""type"": ""MultiPoint"", ""coordinates"": [[-79.37665, 43.64019]]}"
66,Harbourfront Centre,Performing Arts,416-973-4000,http://www.harbourfrontcentre.com/,235 Queens Quay W,M5J 2G8,former Toronto,Toronto,"Popular 10-acre lakeside cultural site offers an eclectic blend of year-round arts, culture and recreation such as concerts, skating, music festivals and dance.","{""type"": ""MultiPoint"", ""coordinates"": [[-79.38188, 43.63882]]}"
67,Hart House Theatre,Performing Arts,416-978-2452,https://harthouse.ca/,7 Hart House Cir,M5S 3H3,former Toronto,Toronto,"A point of interest in the University of Toronto community, the Hart House Theatre and it's students produce an array of drama, dance, film, and music.","{""type"": ""MultiPoint"", ""coordinates"": [[-79.39434, 43.664]]}"
68,High Park,Nature/ Park,416-338-0338,http://www.highparktoronto.com/,1873 Bloor St W,M6R 2Z3,former Toronto,Toronto,"High Park is one of Torontos largest parks, and attracts visitors each spring for the blooming of its famous cherry blossoms. It also contains attractions and amenities such as recreational programs, a local zoo, a unique playground and a pond.","{""type"": ""MultiPoint"", ""coordinates"": [[-79.46378, 43.64646]]}"
69,Historic Zion Schoolhouse,Museum,416-395-7435,https://www.toronto.ca/explore-enjoy/history-art-culture/museums/zion-schoolhouse/,1091 Finch Ave E,M2J 2X3,North York,Toronto,"Built in 1869, the Historic Zion Schoolhouse has been restored to emulate schooling as it once was in the farming  district of L'Amaroux","{""type"": ""MultiPoint"", ""coordinates"": [[-79.3634, 43.79037]]}"
70,Hockey Hall of Fame,Attraction,416-360-7765,https://www.hhof.com/,30 Yonge St,M5E 1X8,former Toronto,Toronto,"Unique to Toronto, and featuring the Stanley Cup, interactive exhibits, shows, and the finest collection of hockey artifacts in the world.","{""type"": ""MultiPoint"", ""coordinates"": [[-79.37768, 43.64726]]}"
71,HTO Park,Nature/ Park,416-392-8188,https://www.toronto.ca/data/parks/prd/facilities/complex/1663/index.html,339 Queens Quay W,M5V 1A2,former Toronto,Toronto,"Facing the inner harbour with Toronto Island Park in clear viewing,  HTO Park includes an urban beach which is decorated with yellow umbrellas and Muskoka chairs.","{""type"": ""MultiPoint"", ""coordinates"": [[-79.38817, 43.63779]]}"
72,Hudson's Bay,Landmark,416-861-9111,https://www.thebay.com/,176 Yonge St,M5C 2L7,former Toronto,Toronto,"Famously known as being North America's oldest company, the Hudson Bay is a chain of department stores  that operate throughout the country.","{""type"": ""MultiPoint"", ""coordinates"": [[-79.37988, 43.65197]]}"
73,Humber Arboretum,Nature/ Park,416-675-3111,https://humber.ca/arboretum/,205 Humber College Blvd,M9W 5L7,Etobicoke,Toronto,"Located nearby the West Humber River Valley, the Humber Arboretum offers trails through environmentally-rich areas like forests, and wetlands.","{""type"": ""MultiPoint"", ""coordinates"": [[-79.60749, 43.72481]]}"
74,Humber Bay Park West (Humber Bay Butterfly Habitat),Nature/ Park,416-392-2489,https://www.toronto.ca/data/parks/prd/facilities/complex/1074/index.html,100 Humber Bay Park Rd W,M8V 3X7,Etobicoke,Toronto,"Located at a waterfront park at the mouth of Mimico Creek, the Humber Bay Butterfly Habitat is focused on providing habitat for an array of native butterfly species.","{""type"": ""MultiPoint"", ""coordinates"": [[-79.47727, 43.62416]]}"
75,iArts Museum,Museum,416-504-2787,https://www.iartsmuseum.ca/,580 King St W,M5V 1M1,former Toronto,Toronto,This unique museum features larger-than-life 3D illusions as an immersive experience.,"{""type"": ""MultiPoint"", ""coordinates"": [[-79.39944, 43.64489]]}"
76,Illuminarium Toronto,Attraction,647-368-6070,https://www.illuminarium.com/toronto,28 Gristmill Ln,M5A 4R2,former Toronto,Toronto,"An immerseive experience featuring cutting edge visual, audio and projection technology, occasionally hosting shows.","{""type"": ""MultiPoint"", ""coordinates"": [[-79.36061, 43.64993]]}"
77,Isabel Bader Theatre,Performing Arts,416-585-4575,https://www.vicu.utoronto.ca/hospitality-services/hold-an-event/isabel-bader-theatre/,93 Charles St W,M5S 1K5,former Toronto,Toronto,"Located at the University of Toronto, this multi-purpose venue seats 500 patrons whether it be for a lecture, workshop, or a theatrical production.","{""type"": ""MultiPoint"", ""coordinates"": [[-79.39257, 43.66731]]}"
78,Jack Layton Ferry Terminal,Transportation,416-392-8193,https://www.toronto.ca/explore-enjoy/parks-gardens-beaches/toronto-island-park/all-ferry-schedules/,9 Queens Quay W,M5J 2H3,former Toronto,Toronto,"Located at the foot of Bay Street and Queens Quay West, the  Jack Layton Ferry Terminal acts as a commuting point to and from the Toronto Island Park with frequent ferry service.","{""type"": ""MultiPoint"", ""coordinates"": [[-79.37564, 43.64001]]}"
79,James Garden Park,Garden / Conservatory,416-392-8188,https://www.toronto.ca/data/parks/prd/facilities/complex/3/index.html,99 Edenbridge Dr,M9A 4N1,Etobicoke,Toronto,"Former estate gardens located in Toronto's west end that include rare trees, spring-fed pools, and other seasonal displays.","{""type"": ""MultiPoint"", ""coordinates"": [[-79.51546, 43.67111]]}"
80,Kew Gardens Park,Nature/ Park,416-392-2489,https://www.toronto.ca/explore-enjoy/parks-recreation/places-spaces/parks-and-recreation-facilities/location/?id=107,2075 Queen St E,M4L 1J1,former Toronto,Toronto,"Located in The Beaches, Kew Gardens act as one of Toronto's most popular picnic grounds while having access to the boardwalk on the lakeshore.","{""type"": ""MultiPoint"", ""coordinates"": [[-79.29849, 43.66816]]}"
81,Koerner Hall (at the Telus Centre for Performance and Learning),Performing Arts,416-408-2824,https://www.rcmusic.com/about-us/telus-centre-for-performance-and-learning,273 Bloor St W,M5S 1W2,former Toronto,Toronto,"Koerner Hall is a 1,135 seat venue to provide excellent acoustic sounds for all genres of music in its ""shoebox"" designed venue.","{""type"": ""MultiPoint"", ""coordinates"": [[-79.39639, 43.66786]]}"
82,Little Canada,Attraction,647-578-4663,https://little-canada.ca/,10 Dundas St E,M5B 2G9,former Toronto,Toronto,"This attraction is an immersive joruney through the sights, sounds and wonder of Canada on a miniature scale.","{""type"": ""MultiPoint"", ""coordinates"": [[-79.38084, 43.65669]]}"
83,Mackenzie House,Museum,416-392-6915,https://www.toronto.ca/explore-enjoy/history-art-culture/museums/mackenzie-house/,82 Bond St,M5B 1X2,former Toronto,Toronto,"Mackenzie House is the restored home of William Lyon Mackenzie, Toronto's first Mayor. It is one of 10 museums operated by the City of Toronto.","{""type"": ""MultiPoint"", ""coordinates"": [[-79.37841, 43.65567]]}"
84,Marie Curtis Park East Beach,Nature/ Park,416-392-2489,http://app.toronto.ca/tpha/beach/1.html,2 Forty Second St,L3P 7K7,Etobicoke,Toronto,Located at the mouth of Etobicoke Creek near the foot of Forty-Second Street. Most users of this beach come from the bordering Long Branch community.,"{""type"": ""MultiPoint"", ""coordinates"": [[-79.54054, 43.58572]]}"
85,Massey Hall,Performing Arts,416-872-4255,https://www.masseyhall.com/,178 Victoria St,M5B 1T7,former Toronto,Toronto,"Declared a heritage building in  the 1970s, this live events venue acts as a performance venue for various artists.","{""type"": ""MultiPoint"", ""coordinates"": [[-79.37898, 43.65401]]}"
86,Mattamy Athletic Centre,Sports / Entertainment Venue,416-598-5960,https://www.mattamyathleticcentre.ca/,50 Carlton St,M5B 1J2,former Toronto,Toronto,"Mattamy Athletic Centre is located within Maple Leafs Garden and is home to the Ryerson Ram's basketball, hockey and volleyball teams.","{""type"": ""MultiPoint"", ""coordinates"": [[-79.38034, 43.66217]]}"
87,Medieval Times Dinner and Tournament,Performing Arts,416-260-1170,https://www.medievaltimes.com/,10 Dufferin St,M6K 3C3,former Toronto,Toronto,"A family dinner theatre featuring staged medieval-style games, sword-fighting, and jousting performed by a cast of actors and horses.","{""type"": ""MultiPoint"", ""coordinates"": [[-79.42553, 43.63263]]}"
88,Mel Lastman Square,Landmark,416-395-7584,https://mlsquare.ca/,5100 Yonge St,M2N 5V7,North York,Toronto,"A public park featuring 20,000 square feet of open space, a garden court, an outdoor amphitheatre, fountains and a reflecting pool.","{""type"": ""MultiPoint"", ""coordinates"": [[-79.41416, 43.76752]]}"
89,Meridian Arts Centre (formerly Toronto Centre for the Arts),Performing Arts,416-733-9388,http://www.meridianartscentre.com/,5040 Yonge St,M2N 6R8,North York,Toronto,"This venue features three unique stages to house a multitude of concerts, shows and events.","{""type"": ""MultiPoint"", ""coordinates"": [[-79.41412, 43.76646]]}"
90,Meridian Hall (formerly Sony Centre for the Performing Arts),Performing Arts,416-368-6161,http://www.meridianhall.com/,1 Front St E,M5E 1B2,former Toronto,Toronto,"Meridian Hall is a performing arts venue with a range of events that include concerts, dance, and much more.","{""type"": ""MultiPoint"", ""coordinates"": [[-79.37608, 43.64668]]}"
91,Metro Toronto Convention Centre,Convention & Trade Centres,416-585-8000,https://www.mtccc.com/,255 Front St W,M5V 2W6,former Toronto,Toronto,"Offers more than 600,000 square feet of large exhibit, event, and meeting space.","{""type"": ""MultiPoint"", ""coordinates"": [[-79.38672, 43.64381]]}"
92,Montgomery's Inn,Museum,416-394-8113,https://www.toronto.ca/explore-enjoy/history-art-culture/museums/montgomerys-inn/,4709 Dundas St W,M9A 1A8,Etobicoke,Toronto,"A museum that was once a historic home, visitors can delve into the lifestyle of a 19th century Irish farm family with access to the bedrooms, kitchen wing and much more.","{""type"": ""MultiPoint"", ""coordinates"": [[-79.5257, 43.65171]]}"
93,Museum of Contemporary Canadian Art,Gallery,416-530-2500,https://moca.ca/,158 Sterling Rd,M6R 2B7,former Toronto,Toronto,"A variety of original and thought-provoking exhibitions, promoting innovative art by Canadian and international artists. Over 800 artists have been featured in more than 80 exhibitions and projects.","{""type"": ""MultiPoint"", ""coordinates"": [[-79.44521, 43.6546]]}"
94,Museum of Illusions Toronto,Museum,416-889-2285,https://museumofillusions.ca/,132 Front St E,M5A 1E2,former Toronto,Toronto,The Museum of Illusions offers a wide array of mind-bending exhibits and optical illusions.,"{""type"": ""MultiPoint"", ""coordinates"": [[-79.36963, 43.65011]]}"
95,Mysteriously Yours Mystery Dinner Theatre,Performing Arts,647-361-5114,https://mysteriouslyyours.ca/,33 Gerrard St W,M5G 1Z4,former Toronto,Toronto,Mysteriously Yours. Mystery Dinner Theatre is a murder mystery dinner theatre located in  Downtown Toronto.,"{""type"": ""MultiPoint"", ""coordinates"": [[-79.38306, 43.65835]]}"
96,Native Earth Performing Arts & Aki Studio,Performing Arts,416-531-1402,https://www.nativeearth.ca/,585 Dundas St E,M5A 2B7,former Toronto,Toronto,Native Earth Performing Arts is a theatre company devoted to the artistic expression of the Indigenous experience. Located in Daniels Spectrum.,"{""type"": ""MultiPoint"", ""coordinates"": [[-79.36207, 43.66006]]}"
97,Old City Hall,Landmark,416-338-0338,https://www.toronto.ca/311/knowledgebase/kb/docs/articles/Corporate-Real-Estate-Management/facilities-management/old-city-hall-toronto-courthouse.html,60 Queen St W,M5H 2M3,former Toronto,Toronto,"Old City Hall is a landmark building that was used as Toronto's second City Hall and is a great example of beautiful architecture. Today, it is used as a courthouse.","{""type"": ""MultiPoint"", ""coordinates"": [[-79.38171, 43.65251]]}"
98,Onsite Gallery [at] OCADU,Gallery,416-977-6000,https://www.ocadu.ca/gallery/onsite,199 Richmond St W,M5V 0H4,former Toronto,Toronto,Onsite [at] OCAD U provides the opportunity and space of an art gallery to exhibit students contemporary work.,"{""type"": ""MultiPoint"", ""coordinates"": [[-79.38807, 43.6495]]}"
99,Osgoode Hall,Landmark,416-947-3300,https://www.osgoode.yorku.ca/,130 Queen St W,M5H 2N6,former Toronto,Toronto,"Constructed in the 19th century, Osgoode Hall acts as the judicial landmark of Toronto, with institutions like the Ontario Court of Appeal, the Law Society of Upper Canada, and the Divisional Court of the Superior Court of Justice.","{""type"": ""MultiPoint"", ""coordinates"": [[-79.38578, 43.65202]]}"
100,Polson Pier,Landmark,None,https://g.co/kgs/rY8Pkrh,11 Polson St,M5A 1A4,former Toronto,Toronto,"Located on the water, the Polson Pier is a waterfront property that includes a drive-in cinema, patio bar, concert venues, and much more.","{""type"": ""MultiPoint"", ""coordinates"": [[-79.35559, 43.64102]]}"
101,Princess of Wales Theatre,Performing Arts,1-800-461-3333,https://www.mirvish.com/theatres/princess-of-wales-theatre,300 King St W,M5V 1J2,former Toronto,Toronto,Owned by Mirvish Productions. The Princess of Wales Theatre opened in 1993 and is the home  of many famous theatrical productions,"{""type"": ""MultiPoint"", ""coordinates"": [[-79.38919, 43.64689]]}"
102,Queen Elizabeth Theatre,Performing Arts,416-263-3293,https://queenelizabeththeatre.ca/,190 Princes' Blvd,M6K 3C3,former Toronto,Toronto,"Located at Exhibition Place, the Queen Elizabeth Theatre is an auditorium that is the venue for various entertainment events","{""type"": ""MultiPoint"", ""coordinates"": [[-79.42137, 43.63271]]}"
103,Queen's Park: Legislative Assembly of Ontario,Landmark,416-325-7500,https://www.ola.org/en/visit-learn/parliament-government/explore-queens-park,1 Queen's Park,M7A 1A2,former Toronto,Toronto,"A variety of free tour options are available all year round to visit Ontarios historic Legislative Building (iconic sandstone Richardson Romanesque style building, completed in 1893).","{""type"": ""MultiPoint"", ""coordinates"": [[-79.39159, 43.66223]]}"
104,Randolph Centre for the Arts,Performing Arts,416-924-2243,https://www.randolphcollege.ca/,736 Bathurst St,M5S 2R4,former Toronto,Toronto,The historic Randolph Theatre is a 500-seat theatre located in a former Gothic revival style church.,"{""type"": ""MultiPoint"", ""coordinates"": [[-79.41085, 43.66365]]}"
105,Redpath Sugar Museum,Museum,416-366-3561,https://www.redpathsugar.com/,95 Queens Quay E,M5E 1A3,former Toronto,Toronto,"Located inside the Redpath Refinery, the Redpath Sugar Museum is for those interested in the history of sugar, the development and the role of the Redpath family in Canada's industry sector, and much more.","{""type"": ""MultiPoint"", ""coordinates"": [[-79.37124, 43.64291]]}"
106,Ripley's Aquarium of Canada,Attraction,647-351-3474,https://www.ripleyaquariums.com/canada/,288 Bremner Blvd,M5V 3L9,former Toronto,Toronto,"Canadas largest aquarium. Interactive attractions feature over 5.7 million litres of water and more than 16,000 marine animals.","{""type"": ""MultiPoint"", ""coordinates"": [[-79.38661, 43.64217]]}"
107,Riverdale Farm,Attraction,416-392-6794,http://riverdalefarmtoronto.ca/,201 Winchester St,M4X 1B8,former Toronto,Toronto,"On 7.5 acres, Riverdale Farm is an historic working farm with many scenic pathways and farm animals.","{""type"": ""MultiPoint"", ""coordinates"": [[-79.36173, 43.66697]]}"
108,Riverdale Park (East and West),Nature/ Park,416-392-2489,https://www.toronto.ca/data/parks/prd/facilities/complex/343/index.html,550 Broadview Ave,M4K 2N6,former Toronto,Toronto,"A Toronto park that is great for all seasons. Riverdale Park West has three multipurpose sport fields, seven tennis courts, an outdoor ice rink, two baseball diamonds, and much more.","{""type"": ""MultiPoint"", ""coordinates"": [[-79.35637, 43.6684]]}"
109,Rogers Centre,Sports / Entertainment Venue,416-341-1000,https://www.mlb.com/bluejays/ballpark,1 Blue Jays Way,M5V 1J4,former Toronto,Toronto,The Rogers Centre is a multipurpose venue. Home to the Toronto Blue Jays (Major League Baseball) and the Toronto Argonauts (Canadian Football League).,"{""type"": ""MultiPoint"", ""coordinates"": [[-79.38943, 43.64155]]}"
110,Rosetta McClain Gardens,Nature/ Park,416-396-7378,www.toronto.ca/data/parks/prd/facilities/complex/19/index.html,5 Glen Everest Rd,M1N 1J2,Scarborough,Toronto,"The Rosetta McClain Gardens is a great place to safely see the Scarborough Bluffs and has beautiful rose gardens. There are signs available in braille, textured paths, raised planters, and a ramp to ensure accessibility.","{""type"": ""MultiPoint"", ""coordinates"": [[-79.25576, 43.69682]]}"
111,Rouge Beach Park,Nature/ Park,416-264-2020,https://www.toronto.ca/data/parks/prd/facilities/complex/340/index.html,195 Rouge Hills Dr,M1C 2Y9,Scarborough,Toronto,"One of Toronto's designated swimming beaches, Rouge Beach has two distinct areas a white sand beach and a marsh habitat.","{""type"": ""MultiPoint"", ""coordinates"": [[-79.11853, 43.79314]]}"
112,Rouge National Urban Park,Nature/ Park,416-264-2020,https://www.pc.gc.ca/en/pn-np/on/rouge,25 Zoo Rd,M1B 5W8,Scarborough,Toronto,"Canada's first national park within an urban area, the park is Toronto's largest. It features hiking trails, a campground and Rouge Beach.","{""type"": ""MultiPoint"", ""coordinates"": [[-79.17277, 43.81793]]}"
113,Rouge Valley Conservation Centre,Nature/ Park,416-282-8265,https://www.rvcc.ca/Rouge_Valley_Conservation_Centre.html,1749 Meadowvale Rd,M1B 5W8,former Toronto,Toronto,The Centre focuses on environmental restoration and research while also offering interpretive walks and educational programs for the public.,"{""type"": ""MultiPoint"", ""coordinates"": [[-79.17101, 43.81904]]}"
114,Roy Thomson Hall,Performing Arts,416-872-4255,https://www.roythomsonhall.com/,60 Simcoe St,M5J 2H5,former Toronto,Toronto,"Opened in 1982, Roy Thomson Hall is home of the Toronto Symphony Orchestra and the Toronto Mendelssohn Choir.","{""type"": ""MultiPoint"", ""coordinates"": [[-79.38641, 43.64661]]}"
115,Royal Alexandra Theatre,Performing Arts,1-800-461-3333,https://www.mirvish.com/theatres/royal-alexandra-theatre,260 King St W,M5V 1H9,former Toronto,Toronto,Owned by Mirvish Productions. The Royal Alexandra Theatre built in beaux-arts architectural style in 1907. It is home to numerous performances and performers.,"{""type"": ""MultiPoint"", ""coordinates"": [[-79.38758, 43.64733]]}"
116,Royal Conservatory of Music,Performing Arts,416-408-2824,https://www.rcmusic.com/,273 Bloor St W,M5S 1W2,former Toronto,Toronto,The Toronto Conservatory of Music was founded in 1886.,"{""type"": ""MultiPoint"", ""coordinates"": [[-79.39631, 43.66796]]}"
117,Royal Ontario Museum,Museum,416-586-8000,https://www.rom.on.ca/en,100 Queen's Park,M5S 2C6,former Toronto,Toronto,"Canadas largest museum of natural history and world cultures, presents engaging galleries of art, archaeology, and natural science from around the world.","{""type"": ""MultiPoint"", ""coordinates"": [[-79.39479, 43.66771]]}"
118,Sankofa Square (formerly known as Yonge-Dundas Square),Landmark,416-979-9960,https://www.sankofasquare.ca/,1 Dundas St E,M5B 2L6,former Toronto,Toronto,"Yonge-Dundas Square is one of the city's largest public squares. It is located directly across from the Toronto Eaton Centre. The square is home to free movie screenings, concerts, shows and exhibits.","{""type"": ""MultiPoint"", ""coordinates"": [[-79.38043, 43.65593]]}"
119,Sarah and Chaim Neuberger Holocaust Education Centre,Museum,416-631-5689,https://www.holocaustcentre.com/,4588 Bathurst St,M2R 1W6,North York,Toronto,"The Sarah and Chaim Neuberger Holocaust Education Centre provides all its visitors a complete understanding of the Holocaust.30, 000 students pass through its doors during educational trips.","{""type"": ""MultiPoint"", ""coordinates"": [[-79.44186, 43.76411]]}"
120,Scarborough Museum,Museum,416-338-8807,https://www.toronto.ca/explore-enjoy/history-art-culture/museums/scarborough-museum/,1007 Brimley Rd,M1P 3E8,Scarborough,Toronto,The Scarborough Museum and its gardens are located within Thomson Memorial Park.It is one of 10 museums operated by the City of Toronto.The Museum looks back on the story of Scarborough's roots and history.,"{""type"": ""MultiPoint"", ""coordinates"": [[-79.25482, 43.75761]]}"
121,Scarborough Village Theatre,Performing Arts,416-267-9292,https://theatrescarborough.com/,3600 Kingston Rd,M1M 1R9,Scarborough,Toronto,"Theatre Scarborough is an umbrella organization consisting of Scarborough Music Theatre, Scarborough Players, and Scarborough Theatre Guild. Performances take place at the Scarborough Village Community Centre.","{""type"": ""MultiPoint"", ""coordinates"": [[-79.21692, 43.73983]]}"
122,Scotiabank Arena,Sports / Entertainment Venue,416-815-5982,https://www.scotiabankarena.com/,40 Bay St,M5J 2X2,former Toronto,Toronto,"The Scotiabank Arena is a multi-purpose indoor sporting arena and concert venue. It is the home of the Toronto Maple Leafs Hockey Club, the Toronto Raptors basketball team, and the Toronto Rock Lacrosse team.","{""type"": ""MultiPoint"", ""coordinates"": [[-79.3791, 43.64346]]}"
123,Soulpepper Theatre Company,Performing Arts,416-866-8666,https://www.soulpepper.ca/,50 Tank House Lane,M5A 3C4,former Toronto,Toronto,Soulpepper is a not-for-profit theatre company that offers plays and concerts with a focus on training and youth projects.,"{""type"": ""MultiPoint"", ""coordinates"": [[-79.352772, 43.65084]]}"
124,Spadina Museum,Museum,416-392-6910,https://www.toronto.ca/explore-enjoy/history-art-culture/museums/spadina-museum/,285 Spadina Rd,M5R 2V5,former Toronto,Toronto,"Operated by the City of Toronto, the Spadina Museum is a historic manor house that allows visitors to learn about the history and architecture of  late 19th century to early 20th century Toronto.","{""type"": ""MultiPoint"", ""coordinates"": [[-79.40818, 43.67898]]}"
125,St. James Park,Nature/ Park,416-392-2489,https://www.toronto.ca/data/parks/prd/facilities/complex/408/index.html,120 King St E,M5C 1G6,former Toronto,Toronto,"A large green space, home to a Victorian garden, live performances, and is a popular spot for photos. The park is adjacent to historic St. James Cathedral.","{""type"": ""MultiPoint"", ""coordinates"": [[-79.37306, 43.65083]]}"
126,St. Lawrence Centre for the Arts,Performing Arts,416-366-1656,https://tolive.com/Home-Page,27 Front St E,M5E 1B4,former Toronto,Toronto,"Home to  two theatres, the Bluma Appel Theatre and the Jane Mallett Theatre, the St. Lawrence Centre for the Arts is the home to various artistic and public events.","{""type"": ""MultiPoint"", ""coordinates"": [[-79.37531, 43.64753]]}"
127,St. Lawrence Market and Market Gallery,Attraction,416-392-7220,http://www.stlawrencemarket.com/,93 Front St E,M5E 1C3,former Toronto,Toronto,"Voted best fresh food market in the world by National Geographic in 2012, Torontos historic and premier market also includes The Market Gallery, housed within part of Torontos original 19th century City Hall.","{""type"": ""MultiPoint"", ""coordinates"": [[-79.37156, 43.6487]]}"
128,Steam Whistle Brewery,Attraction,416-362-2337,https://steamwhistle.ca/,255 Bremner Blvd,M5V 3M9,former Toronto,Toronto,"A microbrewery located in downtown Toronto, Steam Whistle Brewery produces a premium pale lager composed of only four ingredients.","{""type"": ""MultiPoint"", ""coordinates"": [[-79.3857, 43.64067]]}"
129,Sugar Beach Park,Nature/ Park,416-396-7378,https://www.toronto.ca/data/parks/prd/facilities/complex/2261/index.html,11 Dockside Dr,M5A 0B6,former Toronto,Toronto,Sugar Beach is one of Toronto's urban beach parks. Famous for its pink umbrellas and Muskoka chairs.,"{""type"": ""MultiPoint"", ""coordinates"": [[-79.36743, 43.6429]]}"
130,Sunnyside Beach,Nature/ Park,416-392-2489,https://www.toronto.ca/data/parks/prd/facilities/complex/394/index.html,1755 Lake Shore Blvd W,M6S 5A3,former Toronto,Toronto,"One of Toronto's designated swimming beaches, Sunnyside Beach provides rowers and paddlers calm waters with an offshore break wall.","{""type"": ""MultiPoint"", ""coordinates"": [[-79.45703, 43.63738]]}"
131,Taras H. Shevchenko Museum,Museum,416-534-8662,https://www.shevchenko.ca/,1604 Bloor St W,M6P 1A7,former Toronto,Toronto,The Taras H. Shevchenko Museum is the home to  exhibitions dedicated to the contribution of Ukrainians in Canada and the life of famed writer Taras Shevchenko.,"{""type"": ""MultiPoint"", ""coordinates"": [[-79.45524, 43.65599]]}"
132,Tarragon Theatre,Performing Arts,416-531-1827,https://tarragontheatre.com/,30 Bridgman Ave,M5R 1X3,former Toronto,Toronto,The Tarragon Theatre is a performing arts centre  notable for the development of playwrights. Over 170 works have premiered at the theatre.,"{""type"": ""MultiPoint"", ""coordinates"": [[-79.41287, 43.67494]]}"
133,Textile Museum of Canada,Museum,416-599-5321,https://textilemuseum.ca/,55 Centre Ave,M5G 2H5,former Toronto,Toronto,"With more than 13,000 objects from more than 200 countries and regions, the Textile Museum of Canada celebrates cultural diversity through traditional fabrics, garments, carpets and related artifacts such as beadwork and basketry.","{""type"": ""MultiPoint"", ""coordinates"": [[-79.38674, 43.65447]]}"
134,The 48th Highlanders Museum,Museum,416-596-1382,https://museum.48thhighlanders.ca/,73 Simcoe St,M5J 1W9,former Toronto,Toronto,"This museum is dedicated to one of Canada's famous military regiments. The museum holds historical artifacts dating from Victorian Toronto in 1891, when the 48th Highlanders was formed, to the present day.","{""type"": ""MultiPoint"", ""coordinates"": [[-79.38571, 43.64735]]}"
135,The Danforth Music Hall,Performing Arts,416-778-8163,http://thedanforth.com/,147 Danforth Ave,M4K 1N2,former Toronto,Toronto,"The Music Hall boasts new theatre seats, state-of-art sound and lighting and a completely renovated backstage area.","{""type"": ""MultiPoint"", ""coordinates"": [[-79.357, 43.67623]]}"
136,The Distillery Historic District,Landmark,647-693-4646,https://www.thedistillerydistrict.com/,55 Mill St,M5A 3C4,former Toronto,Toronto,"A pedestrian-only historic area that represents the largest and best preserved collection of Victorian Industrial Architecture in North America. The refurbished warehouses are now home to restaurants, bars, galleries, studios, and a theatre.","{""type"": ""MultiPoint"", ""coordinates"": [[-79.35915, 43.65024]]}"
137,The Image Centre (formerly known as Ryerson Image Centre),Gallery,416-979-5164,https://theimagecentre.ca/,33 Gould St,M5B 1E9,former Toronto,Toronto,"The RIC is dedicated to the public exhibition, research, study and teaching of photography including, installation art and film and media.","{""type"": ""MultiPoint"", ""coordinates"": [[-79.37938, 43.65769]]}"
138,The Japan Foundation,Museum,416-966-1600,https://tr.jpf.go.jp/,2 Bloor St E,M4W 1A8,former Toronto,Toronto,A cultural establishment aiming towards effective development of its international cultural exchange programs in Japanese arts and cultural exchange.,"{""type"": ""MultiPoint"", ""coordinates"": [[-79.38651, 43.6708]]}"
139,The Power Plant Contemporary Art Gallery,Gallery,416-973-4949,http://www.thepowerplant.org/,231 Queens Quay W,M5J 2G8,former Toronto,Toronto,"Dedicated to contemporary art, the Power Plant is a free public gallery located at the Harbourfront Centre.","{""type"": ""MultiPoint"", ""coordinates"": [[-79.38187, 43.63847]]}"
140,The Second City,Performing Arts,1-800-896-8120,https://www.secondcity.com/toronto/,1 York St,M5J 0B6,former Toronto,Toronto,Second City produces premiere comedy performances and operates a training centre.,"{""type"": ""MultiPoint"", ""coordinates"": [[-79.38037, 43.64157]]}"
141,The Theatre Centre,Performing Arts,416-538-0988,http://theatrecentre.org/,1115 Queen St W,M6J 1J1,former Toronto,Toronto,"The Theatre Centre supports artists who wish to develop works of an experimental or alternative nature. All their artists embrace the visual arts, music, dance and new media.","{""type"": ""MultiPoint"", ""coordinates"": [[-79.42327, 43.643]]}"
142,The Village Players,Performing Arts,416-767-7702,http://www.villageplayers.net/,2190 Bloor St W,M6S 1N3,former Toronto,Toronto,"The Village Playhouse a non-profit theatre group that opened its doors in 1974 and has since produced plays such as Cat on a Hot Tin Roof, Amadeus and Dial 'M' For Murder.","{""type"": ""MultiPoint"", ""coordinates"": [[-79.47476, 43.65171]]}"
143,The Well,Landmark,416-203-7777,https://thewelltoronto.com/,486 Front St W,M5V 0V2,former Toronto,Toronto,"The Well opened in 2023, offering diverse dining experiences, retail stores and unique architecture.","{""type"": ""MultiPoint"", ""coordinates"": [[-79.39579, 43.64279]]}"
144,Theatre Passe Muraille,Performing Arts,416-504-7529,http://passemuraille.ca/,16 Ryerson Ave,M5T 2P3,former Toronto,Toronto,Theatre Passe Muraille was Canadas original alternative theatre company. 600 Canadian plays have been produced since the company was founded in 1968.,"{""type"": ""MultiPoint"", ""coordinates"": [[-79.4025, 43.64856]]}"
145,Thompson Landry Gallery - Stone Building & Cooperage Space,Gallery,416-364-4955,http://www.thompsonlandry.com/,32 Distillery Lane,M5A 3C4,former Toronto,Toronto,"The Thompson Landry Gallery is spread out over 6,000 square feet and showcases artwork from internationally acclaimed contemporary Quebec artists. The gallery opened in 2009 and is situated within the Distillery District's Cooperage Building.","{""type"": ""MultiPoint"", ""coordinates"": [[-79.36019, 43.64974]]}"
146,TIFF Bell Lightbox,Landmark,416-599-2033,https://www.tiff.net/,350 King St W,M5V 3X5,former Toronto,Toronto,"The TIFF Bell Lightbox is the home of the Toronto International Film Festival and a year-round destination for unique screenings, themed festivals, and exhibitions. It also houses two restaurants.","{""type"": ""MultiPoint"", ""coordinates"": [[-79.3905, 43.64654]]}"
147,Todmorden Mills Heritage Site,Landmark,416-396-2819,https://www.toronto.ca/explore-enjoy/history-art-culture/museums/todmorden-mills/,67 Pottery Rd,M4K 2B9,East York,Toronto,Todmorden Mills Heritage Site is situated within the Don Valley and is located beside a 9.2 hectare wildflower preserve. It features historic buildings such as the Brewery building and the Papermill theatre and gallery.,"{""type"": ""MultiPoint"", ""coordinates"": [[-79.36024, 43.68647]]}"
148,Tommy Thompson Park,Nature/ Park,416-661-6600,https://tommythompsonpark.ca/,1 Leslie St,M4M 3M2,former Toronto,Toronto,"This narrow peninsula park is a perfect place for hiking, jogging, cycling and birdwatching, with 10km of paved trails.","{""type"": ""MultiPoint"", ""coordinates"": [[-79.32487, 43.63519]]}"
149,Toronto Botanical Gardens and Edwards Gardens,Nature/ Park,416-397-1341,https://torontobotanicalgarden.ca/,777 Lawrence Ave E,M3C 1P2,North York,Toronto,"Located at the stunning Edwards Gardens, Toronto Botanical Garden features award-winning themed gardens and an indoor education/interpretation facility.","{""type"": ""MultiPoint"", ""coordinates"": [[-79.35817, 43.73415]]}"
150,Toronto City Hall and Nathan Phillips Square,Landmark,416-392-2489,https://www.toronto.ca/services-payments/venues-facilities-bookings/booking-city-facilities/city-hall/,100 Queen St W,M5H 2N1,former Toronto,Toronto,"Toronto's City Hall is one of Toronto's best known and visited landmarks. Nathan Phillips Square located directly in front of City Hall, is the site of  the iconic Toronto sign, concerts, farmers' markets, and iconic events.","{""type"": ""MultiPoint"", ""coordinates"": [[-79.38369, 43.65303]]}"
151,Toronto Congress Centre,Convention & Trade Centres,416-245-5000,https://www.torontocongresscentre.com/,650 Dixon Rd,M9W 1J1,Etobicoke,Toronto,"The Toronto Congress Centre opened in 1995 and now features over 1 million square feet of space for galas, meetings, trade shows and conventions,","{""type"": ""MultiPoint"", ""coordinates"": [[-79.57834, 43.69238]]}"
152,Toronto Island Park,Nature/ Park,416-392-2489,https://www.toronto.ca/explore-enjoy/parks-gardens-beaches/toronto-island-park/,1 Centre Island Pk,,former Toronto,Toronto,"The Toronto Island Park is North America's largest car free neighbourhood and is only a short ferry ride away from downtown Toronto. The park is features several attractions, beaches, restaurants, bike and boat rentals and plenty of open green space.","{""type"": ""MultiPoint"", ""coordinates"": [[-79.37469, 43.62256]]}"
153,Toronto Metropolitan University Theatre (formerly known as Ryerson Theatre),Performing Arts,416-979-5009,https://www.torontomu.ca/performance/,43 Gerrard St E,M5G 2A7,former Toronto,Toronto,"Ryerson Theatre is home to various productions which includes concerts, film presentations, and Ryerson Theatre and Fashion Schools productions.","{""type"": ""MultiPoint"", ""coordinates"": [[-79.37993, 43.65929]]}"
154,Toronto Music Garden,Nature/ Park,416-973-4000,https://www.toronto.ca/explore-enjoy/parks-recreation/places-spaces/parks-and-recreation-facilities/location/?id=1707&title=Toronto-Music-Garden,479 Queens Quay W,M5V 3M8,former Toronto,Toronto,The Toronto Music Garden is situated on Toronto's newly revamped waterfront. The garden was designed by landscape designer Julie Moir Messervy and by the cellist Yo Yo Ma.,"{""type"": ""MultiPoint"", ""coordinates"": [[-79.3943, 43.63694]]}"
155,Toronto Pearson International Airport,Transportation,416-247-7678,https://www.torontopearson.com/en,6301 Silver Dart Dr,L5P 1B2,,Mississauga,Canadas busiest airport with flights to over 180 destinations around the globe.,"{""type"": ""MultiPoint"", ""coordinates"": [[-79.6285, 43.67983]]}"
156,Toronto Police Museum & Discovery Centre,Museum,416-808-7020,https://www.tps.ca/museum/,40 College St,M5G 2J3,former Toronto,Toronto,"The Toronto Police Museum & Discovery Centre occupies 3,000 square feet within the Police Headquarters building on College Street. The museum solely relies on private donations and is a not for profit registered charity.","{""type"": ""MultiPoint"", ""coordinates"": [[-79.38482, 43.66122]]}"
157,Toronto Railway Museum,Museum,416- 214-9229,https://torontorailwaymuseum.com/,255 Bremner Blvd,M5V 3M9,former Toronto,Toronto,"The Toronto Railway Museum encompasses the Canadian Pacific Railway John Street Roundhouse at Roundhouse Park and features a restored turntable, a number of trains and the 1896 Canadian Pacific Don Station.","{""type"": ""MultiPoint"", ""coordinates"": [[-79.38595, 43.64071]]}"
158,Toronto Reference Library,Landmark,416-395-5577,https://www.torontopubliclibrary.ca/torontoreferencelibrary/,789 Yonge St,M4W 2G8,former Toronto,Toronto,The Toronto Reference Library is situated in a 5 storey building within the Yorkville neighbourhood. It is the largest public reference library in Canada.,"{""type"": ""MultiPoint"", ""coordinates"": [[-79.38682, 43.67179]]}"
159,Toronto Sculpture Garden,Featured Park,647-458-5657,https://www.toronto.ca/explore-enjoy/history-art-culture/public-art/public-art-monuments-collection/comp-sculpture-garden/,115 King St E,M5C 1G6,former Toronto,Toronto,Since 1981 this small urban park has featured contemporary sculpture installations by various artists.,"{""type"": ""MultiPoint"", ""coordinates"": [[-79.37366, 43.64984]]}"
160,Toronto Tourist Information Centre,Visitor Information,416-392-9300,https://www.toronto.ca/explore-enjoy/visitor-services/tourist-information-centres/,65 Front St W,M5J 1E6,former Toronto,Toronto,"The Toronto Tourist Information Centre provides travel advice and information to all its customers. Services include free Wi-Fi service, brochures and souvenirs. Located at the entrance to the Skywalk.","{""type"": ""MultiPoint"", ""coordinates"": [[-79.38178, 43.64482]]}"
161,Toronto Zoo,Attraction,416-392-5900,https://www.torontozoo.com/,2000 Meadowvale Rd,M1B 5W8,Scarborough,Toronto,"The Toronto Zoo is one of the largest zoos in the world at 287 hectares (710 acres) and is known for interactive education and conservation activities. It is currently home to 2 giant pandas, and more than 5,000 animals representing over 500 species.","{""type"": ""MultiPoint"", ""coordinates"": [[-79.18229, 43.82034]]}"
162,Toronto's First Post Office,Museum,416-865-1833,http://www.townofyork.com/,260 Adelaide St E,M5A 1N1,former Toronto,Toronto,Toronto's First Post Office acts as a museum but also continues to operate as a full service Canada Post office. Admission to the museum is by donation.,"{""type"": ""MultiPoint"", ""coordinates"": [[-79.3704, 43.6519]]}"
163,Travellers' Aid Society of Toronto,Visitor Information,416-366-7788,https://www.travelersaid.org/blog/tai-members/travellers-aid-toronto/,65 Front St W,M5J 1E6,former Toronto,Toronto,Travellers' Aid Society of Toronto operates two desks; one at Pearson International Airport and the other within Union Station's grand hall. They offer free services to the general travelling public.,"{""type"": ""MultiPoint"", ""coordinates"": [[-79.38061, 43.64522]]}"
164,Trinity Square,Landmark,416-392-2489,https://www.toronto.ca/explore-enjoy/parks-recreation/places-spaces/parks-and-recreation-facilities/location/?id=238,19 Trinity Sq,M5G 1B1,former Toronto,Toronto,"Located in between the Toronto Eaton Centre and Old City Hall, the park features a fountain, ornamental pond, a labryrinth and seating; the park is a hotspot for music and events.","{""type"": ""MultiPoint"", ""coordinates"": [[-79.38162, 43.6547]]}"
165,Ukrainian Museum of Canada,Museum,416-923-9861,http://umcontario.com/,620 Spadina Ave,M5S 2H4,former Toronto,Toronto,"The Ukrainian Museum of Canada features over 4,000 artifacts. These artifacts include prints, coins, maps jewellery, textiles and historic costumes.","{""type"": ""MultiPoint"", ""coordinates"": [[-79.4021, 43.66198]]}"
166,Union Station,Transportation,416-392-2489,https://torontounion.ca/,65 Front St W,M5J 1E6,former Toronto,Toronto,"Union Station is the busiest transportation hub in all of Canada. It serves more than 250,000 passengers daily. Via Rail, the TTC, Go Transit and Amtrak all operate out of the station","{""type"": ""MultiPoint"", ""coordinates"": [[-79.38042, 43.64532]]}"
167,Union Station Bus Terminal,Transportation,416-874-5900,https://www.gotransit.com/en/find-a-station/un/un-new-union-station-bus-terminal-usbt-at-cibc-square,81 Bay St,M5E 1Z8,former Toronto,Toronto,The bus terminal is the intercity transportation hub in Toronto.,"{""type"": ""MultiPoint"", ""coordinates"": [[-79.37752, 43.64401]]}"
168,Village at Black Creek (Black Creek Pioneer Village),Museum,416-736-1733,https://blackcreek.ca/,1000 Murray Ross Pkwy,M3J 2P3,North York,Toronto,"Become immersed in the lifestyles, customs, and surroundings of early residents who built the foundations for modern Toronto and Ontario at this 30-acre site.","{""type"": ""MultiPoint"", ""coordinates"": [[-79.51507, 43.7726]]}"
169,Village of Yorkville Park,Nature/ Park,416-338-4386,https://www.bloor-yorkville.com/village-yorkville-park-green-space-gem/,115 Cumberland St,M5R 1A6,former Toronto,Toronto,"The Village of Yorkville Park was built on the site of a former parking lot, in the heart of the Bloor Yorkville neighbourhood. The main focal point of the park is the rock which weighs 650 tonnes and is approximately 1 billion years old.","{""type"": ""MultiPoint"", ""coordinates"": [[-79.39168, 43.67002]]}"
170,Ward's Island Beach,Nature/ Park,416-396-7378,http://app.toronto.ca/tpha/beach/6.html,40 Lakeshore Ave,M5J 1X8,former Toronto,Toronto,"Ward's Island beach is located on the most Eastern part of the Toronto Islands. It features a residential neighbourhood, 2 restaurants, a beach and boardwalk.","{""type"": ""MultiPoint"", ""coordinates"": [[-79.35224, 43.63002]]}"
171,Winchester Street Theatre,Performing Arts,None,https://ttdf.ca/,80 Winchester St,M4X 1B2,former Toronto,Toronto,The Winchester Street Theatre is owned and jointly operated by the Toronto Dance Theatre and the School of Toronto Dance Theatre. The venue features rake seating and a stage that best showcases dance performances.,"{""type"": ""MultiPoint"", ""coordinates"": [[-79.36711, 43.66635]]}"
172,Woodbine Beach,Nature/ Park,416-396-7378,https://www.toronto.ca/data/parks/prd/facilities/complex/311/index.html,1675 Lake Shore Blvd E,M4L 3W6,former Toronto,Toronto,Woodbine Beach is one of the city's main beaches. The park is located over 15.2 hectares.  Features include the Martin Goodman Trail and the Donald D. Summerville Outdoor Olympic Pool.,"{""type"": ""MultiPoint"", ""coordinates"": [[-79.30709, 43.66181]]}"
173,Woodbine Racetracks,Attraction,416-675-7223,https://woodbine.com/,555 Rexdale Blvd,M9W 7G3,Etobicoke,Toronto,Offers both Standardbred and Thoroughbred racing and hosts many prominent events (including the Queens Plate)throughout the year.,"{""type"": ""MultiPoint"", ""coordinates"": [[-79.60412, 43.71446]]}"
174,Woodbine Shopping Centre and Fantasy Fair,Attraction,437-880-8448,http://www.fantasyfair.ca/,500 Rexdale Blvd,M9W 6K5,Etobicoke,Toronto,The Woodbine Shopping Centre is located in the north western part of the city; close to Pearson Airport and Woodbine Racetrack. Fantasy Fair located within the mall is an indoor amusement park for children.  In 2015 it celebrates 30 years.,"{""type"": ""MultiPoint"", ""coordinates"": [[-79.60003, 43.72067]]}"
175,Yorkdale Shopping Centre,Landmark,416-789-3261,https://yorkdale.com/,3401 Dufferin St,M6A 2T9,North York,Toronto,An upscale shopping centre in the northern part of Toronto.,"{""type"": ""MultiPoint"", ""coordinates"": [[-79.45217, 43.72543]]}"
176,Young Centre for the Performing Arts,Performing Arts,416-866-8666,https://www.youngcentre.ca/,50 Tank House Lane,M5A 3C4,former Toronto,Toronto,"Opened in 2006 the Young Centre for the Performing Arts has seen more than 250,000 people attend its performances. The theatre is located within the Distillery Historic District.","{""type"": ""MultiPoint"", ""coordinates"": [[-79.35767, 43.65093]]}"
177,Young People's Theatre,Performing Arts,416-862-2222,https://www.youngpeoplestheatre.org/,165 Front St E,M5A 3Z4,former Toronto,Toronto,The Young People Theatre is a part of the Soulpepper theatre company located within the Distillery Historic District.,"{""type"": ""MultiPoint"", ""coordinates"": [[-79.36882, 43.65006]]}"
178,Yuk Yuk's,Performing Arts,416-967-6431,https://www.yukyuks.com/,224 Richmond St W,M5V 1V6,former Toronto,Toronto,Yuk Yuk's was established as a comedy club by Mark Breslin in 1976. It is located within Toronto's entertainment district and features various comedians doing their stand up routines.,"{""type"": ""MultiPoint"", ""coordinates"": [[-79.38831, 43.6498]]}"
